[
  {
    "COMMENT": "GENERATED VIA SPACETRACK.ORG API",
    "ORIGINATOR": "18 SPCS",
    "NORAD_CAT_ID": "46984",
    "OBJECT_NAME": "S6 MICHAEL FREILICH",
    "OBJECT_TYPE": "PAYLOAD",
    "CLASSIFICATION_TYPE": "U",
    "INTLDES": "20086A",
    "EPOCH": "2023-07-31 02:10:03",
    "EPOCH_MICROSECONDS": "681696",
    "MEAN_MOTION": "12.80930775",
    "ECCENTRICITY": "0.0008038",
    "INCLINATION": "66.0406",
    "RA_OF_ASC_NODE": "160.2686",
    "ARG_OF_PERICENTER": "269.017",
    "MEAN_ANOMALY": "90.9924",
    "EPHEMERIS_TYPE": "0",
    "ELEMENT_SET_NO": "999",
    "REV_AT_EPOCH": "12570",
    "BSTAR": "-0.000085143",
    "MEAN_MOTION_DOT": "-0.00000081",
    "MEAN_MOTION_DDOT": "0",
    "FILE": "3967722",
    "TLE_LINE0": "0 S6 MICHAEL FREILICH",
    "TLE_LINE1": "1 46984U 20086A   23212.09032039 -.00000081  00000-0 -85143-4 0  9999",
    "TLE_LINE2": "2 46984  66.0406 160.2686 0008038 269.0170  90.9924 12.80930775125708",
    "OBJECT_ID": "2020-086A",
    "OBJECT_NUMBER": "46984",
    "SEMIMAJOR_AXIS": "7715.867",
    "PERIOD": "112.418",
    "APOGEE": "1343.934",
    "PERIGEE": "1331.530",
    "DECAYED": "0"
  },
  {
    "COMMENT": "GENERATED VIA SPACETRACK.ORG API",
    "ORIGINATOR": "18 SPCS",
    "NORAD_CAT_ID": "46984",
    "OBJECT_NAME": "S6 MICHAEL FREILICH",
    "OBJECT_TYPE": "PAYLOAD",
    "CLASSIFICATION_TYPE": "U",
    "INTLDES": "20086A",
    "EPOCH": "2023-08-01 02:31:38",
    "EPOCH_MICROSECONDS": "519616",
    "MEAN_MOTION": "12.80930749",
    "ECCENTRICITY": "0.0008029",
    "INCLINATION": "66.0407",
    "RA_OF_ASC_NODE": "158.1605",
    "ARG_OF_PERICENTER": "268.9825",
    "MEAN_ANOMALY": "91.0271",
    "EPHEMERIS_TYPE": "0",
    "ELEMENT_SET_NO": "999",
    "REV_AT_EPOCH": "12583",
    "BSTAR": "-0.000081987",
    "MEAN_MOTION_DOT": "-0.0000008",
    "MEAN_MOTION_DDOT": "0",
    "FILE": "3968569",
    "TLE_LINE0": "0 S6 MICHAEL FREILICH",
    "TLE_LINE1": "1 46984U 20086A   23213.10530694 -.00000080  00000-0 -81987-4 0  9993",
    "TLE_LINE2": "2 46984  66.0407 158.1605 0008029 268.9825  91.0271 12.80930749125833",
    "OBJECT_ID": "2020-086A",
    "OBJECT_NUMBER": "46984",
    "SEMIMAJOR_AXIS": "7715.867",
    "PERIOD": "112.418",
    "APOGEE": "1343.927",
    "PERIGEE": "1331.537",
    "DECAYED": "0"
  },
  {
    "COMMENT": "GENERATED VIA SPACETRACK.ORG API",
    "ORIGINATOR": "18 SPCS",
    "NORAD_CAT_ID": "46984",
    "OBJECT_NAME": "S6 MICHAEL FREILICH",
    "OBJECT_TYPE": "PAYLOAD",
    "CLASSIFICATION_TYPE": "U",
    "INTLDES": "20086A",
    "EPOCH": "2023-08-02 06:38:04",
    "EPOCH_MICROSECONDS": "869600",
    "MEAN_MOTION": "12.80930773",
    "ECCENTRICITY": "0.0008023",
    "INCLINATION": "66.0407",
    "RA_OF_ASC_NODE": "155.7282",
    "ARG_OF_PERICENTER": "268.9653",
    "MEAN_ANOMALY": "91.0442",
    "EPHEMERIS_TYPE": "0",
    "ELEMENT_SET_NO": "999",
    "REV_AT_EPOCH": "12598",
    "BSTAR": "-0.000047432",
    "MEAN_MOTION_DOT": "-0.00000072",
    "MEAN_MOTION_DDOT": "0",
    "FILE": "3969672",
    "TLE_LINE0": "0 S6 MICHAEL FREILICH",
    "TLE_LINE1": "1 46984U 20086A   23214.27644525 -.00000072  00000-0 -47432-4 0  9999",
    "TLE_LINE2": "2 46984  66.0407 155.7282 0008023 268.9653  91.0442 12.80930773125983",
    "OBJECT_ID": "2020-086A",
    "OBJECT_NUMBER": "46984",
    "SEMIMAJOR_AXIS": "7715.867",
    "PERIOD": "112.418",
    "APOGEE": "1343.922",
    "PERIGEE": "1331.542",
    "DECAYED": "0"
  },
  {
    "COMMENT": "GENERATED VIA SPACETRACK.ORG API",
    "ORIGINATOR": "18 SPCS",
    "NORAD_CAT_ID": "46984",
    "OBJECT_NAME": "S6 MICHAEL FREILICH",
    "OBJECT_TYPE": "PAYLOAD",
    "CLASSIFICATION_TYPE": "U",
    "INTLDES": "20086A",
    "EPOCH": "2023-08-03 06:59:39",
    "EPOCH_MICROSECONDS": "707520",
    "MEAN_MOTION": "12.80930788",
    "ECCENTRICITY": "0.0008024",
    "INCLINATION": "66.0408",
    "RA_OF_ASC_NODE": "153.6202",
    "ARG_OF_PERICENTER": "268.9598",
    "MEAN_ANOMALY": "91.0498",
    "EPHEMERIS_TYPE": "0",
    "ELEMENT_SET_NO": "999",
    "REV_AT_EPOCH": "12611",
    "BSTAR": "-0.0000057083",
    "MEAN_MOTION_DOT": "-0.00000062",
    "MEAN_MOTION_DDOT": "0",
    "FILE": "3970577",
    "TLE_LINE0": "0 S6 MICHAEL FREILICH",
    "TLE_LINE1": "1 46984U 20086A   23215.29143180 -.00000062  00000-0 -57083-5 0  9996",
    "TLE_LINE2": "2 46984  66.0408 153.6202 0008024 268.9598  91.0498 12.80930788126115",
    "OBJECT_ID": "2020-086A",
    "OBJECT_NUMBER": "46984",
    "SEMIMAJOR_AXIS": "7715.867",
    "PERIOD": "112.418",
    "APOGEE": "1343.923",
    "PERIGEE": "1331.541",
    "DECAYED": "0"
  },
  {
    "COMMENT": "GENERATED VIA SPACETRACK.ORG API",
    "ORIGINATOR": "18 SPCS",
    "NORAD_CAT_ID": "46984",
    "OBJECT_NAME": "S6 MICHAEL FREILICH",
    "OBJECT_TYPE": "PAYLOAD",
    "CLASSIFICATION_TYPE": "U",
    "INTLDES": "20086A",
    "EPOCH": "2023-08-05 02:05:32",
    "EPOCH_MICROSECONDS": "373600",
    "MEAN_MOTION": "12.80928799",
    "ECCENTRICITY": "0.0008003",
    "INCLINATION": "66.0411",
    "RA_OF_ASC_NODE": "149.8909",
    "ARG_OF_PERICENTER": "269.1434",
    "MEAN_ANOMALY": "90.8664",
    "EPHEMERIS_TYPE": "0",
    "ELEMENT_SET_NO": "999",
    "REV_AT_EPOCH": "12634",
    "BSTAR": "0.000052577",
    "MEAN_MOTION_DOT": "-0.00000049",
    "MEAN_MOTION_DDOT": "0",
    "FILE": "3971969",
    "TLE_LINE0": "0 S6 MICHAEL FREILICH",
    "TLE_LINE1": "1 46984U 20086A   23217.08718025 -.00000049  00000-0  52577-4 0  9997",
    "TLE_LINE2": "2 46984  66.0411 149.8909 0008003 269.1434  90.8664 12.80928799126345",
    "OBJECT_ID": "2020-086A",
    "OBJECT_NUMBER": "46984",
    "SEMIMAJOR_AXIS": "7715.875",
    "PERIOD": "112.418",
    "APOGEE": "1343.915",
    "PERIGEE": "1331.565",
    "DECAYED": "0"
  },
  {
    "COMMENT": "GENERATED VIA SPACETRACK.ORG API",
    "ORIGINATOR": "18 SPCS",
    "NORAD_CAT_ID": "46984",
    "OBJECT_NAME": "S6 MICHAEL FREILICH",
    "OBJECT_TYPE": "PAYLOAD",
    "CLASSIFICATION_TYPE": "U",
    "INTLDES": "20086A",
    "EPOCH": "2023-08-06 04:19:33",
    "EPOCH_MICROSECONDS": "114432",
    "MEAN_MOTION": "12.80928806",
    "ECCENTRICITY": "0.0007988",
    "INCLINATION": "66.0411",
    "RA_OF_ASC_NODE": "147.6205",
    "ARG_OF_PERICENTER": "269.0725",
    "MEAN_ANOMALY": "90.9375",
    "EPHEMERIS_TYPE": "0",
    "ELEMENT_SET_NO": "999",
    "REV_AT_EPOCH": "12648",
    "BSTAR": "0.000066079",
    "MEAN_MOTION_DOT": "-0.00000046",
    "MEAN_MOTION_DDOT": "0",
    "FILE": "3972816",
    "TLE_LINE0": "0 S6 MICHAEL FREILICH",
    "TLE_LINE1": "1 46984U 20086A   23218.18024438 -.00000046  00000-0  66079-4 0  9996",
    "TLE_LINE2": "2 46984  66.0411 147.6205 0007988 269.0725  90.9375 12.80928806126487",
    "OBJECT_ID": "2020-086A",
    "OBJECT_NUMBER": "46984",
    "SEMIMAJOR_AXIS": "7715.875",
    "PERIOD": "112.418",
    "APOGEE": "1343.903",
    "PERIGEE": "1331.576",
    "DECAYED": "0"
  },
  {
    "COMMENT": "GENERATED VIA SPACETRACK.ORG API",
    "ORIGINATOR": "18 SPCS",
    "NORAD_CAT_ID": "46984",
    "OBJECT_NAME": "S6 MICHAEL FREILICH",
    "OBJECT_TYPE": "PAYLOAD",
    "CLASSIFICATION_TYPE": "U",
    "INTLDES": "20086A",
    "EPOCH": "2023-08-07 04:41:08",
    "EPOCH_MICROSECONDS": "87136",
    "MEAN_MOTION": "12.80928827",
    "ECCENTRICITY": "0.0007987",
    "INCLINATION": "66.0412",
    "RA_OF_ASC_NODE": "145.5126",
    "ARG_OF_PERICENTER": "269.0135",
    "MEAN_ANOMALY": "90.9966",
    "EPHEMERIS_TYPE": "0",
    "ELEMENT_SET_NO": "999",
    "REV_AT_EPOCH": "12661",
    "BSTAR": "0.000098869",
    "MEAN_MOTION_DOT": "-0.00000038",
    "MEAN_MOTION_DDOT": "0",
    "FILE": "3974083",
    "TLE_LINE0": "0 S6 MICHAEL FREILICH",
    "TLE_LINE1": "1 46984U 20086A   23219.19523249 -.00000038  00000-0  98869-4 0  9995",
    "TLE_LINE2": "2 46984  66.0412 145.5126 0007987 269.0135  90.9966 12.80928827126615",
    "OBJECT_ID": "2020-086A",
    "OBJECT_NUMBER": "46984",
    "SEMIMAJOR_AXIS": "7715.875",
    "PERIOD": "112.418",
    "APOGEE": "1343.903",
    "PERIGEE": "1331.577",
    "DECAYED": "0"
  },
  {
    "COMMENT": "GENERATED VIA SPACETRACK.ORG API",
    "ORIGINATOR": "18 SPCS",
    "NORAD_CAT_ID": "46984",
    "OBJECT_NAME": "S6 MICHAEL FREILICH",
    "OBJECT_TYPE": "PAYLOAD",
    "CLASSIFICATION_TYPE": "U",
    "INTLDES": "20086A",
    "EPOCH": "2023-08-08 05:02:43",
    "EPOCH_MICROSECONDS": "54656",
    "MEAN_MOTION": "12.80928878",
    "ECCENTRICITY": "0.0007981",
    "INCLINATION": "66.0413",
    "RA_OF_ASC_NODE": "143.4046",
    "ARG_OF_PERICENTER": "269.0053",
    "MEAN_ANOMALY": "91.0048",
    "EPHEMERIS_TYPE": "0",
    "ELEMENT_SET_NO": "999",
    "REV_AT_EPOCH": "12674",
    "BSTAR": "0.000097637",
    "MEAN_MOTION_DOT": "-0.00000039",
    "MEAN_MOTION_DDOT": "0",
    "FILE": "3975015",
    "TLE_LINE0": "0 S6 MICHAEL FREILICH",
    "TLE_LINE1": "1 46984U 20086A   23220.21022054 -.00000039  00000-0  97637-4 0  9991",
    "TLE_LINE2": "2 46984  66.0413 143.4046 0007981 269.0053  91.0048 12.80928878126740",
    "OBJECT_ID": "2020-086A",
    "OBJECT_NUMBER": "46984",
    "SEMIMAJOR_AXIS": "7715.875",
    "PERIOD": "112.418",
    "APOGEE": "1343.898",
    "PERIGEE": "1331.582",
    "DECAYED": "0"
  }
]